NORAD_CAT_ID,OBJECT_NAME,OBJECT_TYPE,EPOCH,MEAN_MOTION,ECCENTRICITY,INCLINATION,RA_OF_ASC_NODE,ARG_OF_PERICENTER,MEAN_ANOMALY,BSTAR,MEAN_MOTION_DOT,MEAN_MOTION_DDOT,TLE_LINE0,TLE_LINE1,TLE_LINE2,SEMIMAJOR_AXIS,PERIOD,APOGEE,PERIGEE,DECAYED
54768.0,STARLINK-5444,PAYLOAD,2024-01-15 04:56:37,15.0886048,0.000145,53.2185,311.1884,97.7986,262.3171,0.00034152,5.154e-05,0.0,0 STARLINK-5444,1 54768U 22175L   24015.20599390  .00005154  00000-0  34152-3 0  9999,2 54768  53.2185 311.1884 0001450  97.7986 262.3171 15.08860480 61692,6917.818,95.436,540.686,538.68,0.0
54768.0,STARLINK-5444,PAYLOAD,2024-01-16 00:01:16,15.08837548,0.0001283,53.2197,307.6177,99.3664,260.7473,-7.5602e-05,-1.491e-05,0.0,0 STARLINK-5444,1 54768U 22175L   24016.00088471 -.00001491  00000-0 -75602-4 0  9999,2 54768  53.2197 307.6177 0001283  99.3664 260.7473 15.08837548 59654,6917.888,95.438,540.64,538.865,0.0
54768.0,STARLINK-5444,PAYLOAD,2024-01-16 04:47:25,15.08852669,0.000146,53.2191,306.7281,102.5025,257.6131,7.2323e-05,8.64e-06,0.0,0 STARLINK-5444,1 54768U 22175L   24016.19959702  .00000864  00000-0  72323-4 0  9991,2 54768  53.2191 306.7281 0001460 102.5025 257.6131 15.08852669 59689,6917.842,95.437,540.717,538.697,0.0
54768.0,STARLINK-5444,PAYLOAD,2024-01-17 01:27:26,15.08849675,0.0001711,53.2183,302.8666,83.3618,276.7569,-3.1227e-05,-7.85e-06,0.0,0 STARLINK-5444,1 54768U 22175L   24017.06072214 -.00000785  00000-0 -31227-4 0  9994,2 54768  53.2183 302.8666 0001711  83.3618 276.7569 15.08849675 59812,6917.851,95.437,540.899,538.532,0.0
54768.0,STARLINK-5444,PAYLOAD,2024-01-17 22:07:27,15.08839017,0.0001376,53.2178,298.9967,107.5298,252.5845,-1.4568e-06,-3.11e-06,0.0,0 STARLINK-5444,1 54768U 22175L   24017.92184842 -.00000311  00000-0 -14568-5 0  9995,2 54768  53.2178 298.9967 0001376 107.5298 252.5845 15.08839017 62109,6917.883,95.438,540.7,538.796,0.0
54768.0,STARLINK-5444,PAYLOAD,2024-01-18 01:18:13,15.0884082,0.0001448,53.2181,298.4022,105.973,254.1422,1.3353e-05,-7.5e-07,0.0,0 STARLINK-5444,1 54768U 22175L   24018.05432720 -.00000075  00000-0  13353-4 0  9997,2 54768  53.2181 298.4022 0001448 105.9730 254.1422 15.08840820 59966,6917.878,95.438,540.745,538.741,0.0
54768.0,STARLINK-5444,PAYLOAD,2024-01-18 04:29:00,15.08839869,0.0001619,53.2186,297.8051,114.1396,245.9766,4.0414e-05,3.55e-06,0.0,0 STARLINK-5444,1 54768U 22175L   24018.18680699  .00000355  00000-0  40414-4 0  9999,2 54768  53.2186 297.8051 0001619 114.1396 245.9766 15.08839869 62140,6917.881,95.438,540.866,538.626,0.0
54768.0,STARLINK-5444,PAYLOAD,2024-01-18 21:58:14,15.08840396,0.0001569,53.2185,294.5342,111.8661,248.2498,6.1245e-05,6.87e-06,0.0,0 STARLINK-5444,1 54768U 22175L   24018.91544827  .00000687  00000-0  61245-4 0  9995,2 54768  53.2185 294.5342 0001569 111.8661 248.2498 15.08840396 62256,6917.879,95.438,540.83,538.659,0.0
54768.0,STARLINK-5444,PAYLOAD,2024-01-19 01:09:00,15.08847347,0.0001553,53.2183,293.9396,98.7417,261.3751,5.6146e-05,6.06e-06,0.0,0 STARLINK-5444,1 54768U 22175L   24019.04792504  .00000606  00000-0  56146-4 0  9992,2 54768  53.2183 293.9396 0001553  98.7417 261.3751 15.08847347 62274,6917.858,95.437,540.797,538.649,0.0
54768.0,STARLINK-5444,PAYLOAD,2024-01-19 21:49:01,15.08838741,0.0001579,53.2185,290.0746,104.4275,255.6893,9.6146e-05,1.242e-05,0.0,0 STARLINK-5444,1 54768U 22175L   24019.90905008  .00001242  00000-0  96146-4 0  9993,2 54768  53.2185 290.0746 0001579 104.4275 255.6893 15.08838741 62404,6917.884,95.438,540.842,538.657,0.0
54768.0,STARLINK-5444,PAYLOAD,2024-01-20 00:59:48,15.08840694,0.0001553,53.2184,289.4819,105.4348,254.6816,7.4998e-05,9.06e-06,0.0,0 STARLINK-5444,1 54768U 22175L   24020.04152942  .00000906  00000-0  74998-4 0  9998,2 54768  53.2184 289.4819 0001553 105.4348 254.6816 15.08840694 60266,6917.878,95.438,540.818,538.669,0.0
54768.0,STARLINK-5444,PAYLOAD,2024-01-21 00:50:35,15.08838938,0.0001477,53.2181,285.0222,92.0536,268.0625,-2.7647e-05,-7.28e-06,0.0,0 STARLINK-5444,1 54768U 22175L   24021.03513578 -.00000728  00000-0 -27647-4 0  9997,2 54768  53.2181 285.0222 0001477  92.0536 268.0625 15.08838938 60410,6917.884,95.438,540.77,538.727,0.0
54768.0,STARLINK-5444,PAYLOAD,2024-01-21 21:30:36,15.0884632,0.0001419,53.2184,281.1528,88.1052,272.0103,-2.5551e-05,-6.95e-06,0.0,0 STARLINK-5444,1 54768U 22175L   24021.89625261 -.00000695  00000-0 -25551-4 0  9999,2 54768  53.2184 281.1528 0001419  88.1052 272.0103 15.08846320 62708,6917.861,95.437,540.708,538.744,0.0
54768.0,STARLINK-5444,PAYLOAD,2024-01-22 00:41:23,15.08803433,0.000179,53.2184,280.5569,80.3131,279.8063,0.00064232,9.939e-05,0.0,0 STARLINK-5444,1 54768U 22175L   24022.02874135  .00009939  00000-0  64232-3 0  9997,2 54768  53.2184 280.5569 0001790  80.3131 279.8063 15.08803433 60560,6917.992,95.44,541.095,538.619,0.0
54768.0,STARLINK-5444,PAYLOAD,2024-01-22 22:56:49,15.08808526,0.0001649,53.2181,276.3935,62.5806,297.5354,-0.00017514,-3.072e-05,0.0,0 STARLINK-5444,1 54768U 22175L   24022.95612521 -.00003072  00000-0 -17514-3 0  9993,2 54768  53.2181 276.3935 0001649  62.5806 297.5354 15.08808526 62864,6917.977,95.44,540.982,538.701,0.0
54768.0,STARLINK-5444,PAYLOAD,2024-01-23 00:32:12,15.08801701,0.0001623,53.2178,276.1013,75.5437,284.5736,-0.0002329,-3.989e-05,0.0,0 STARLINK-5444,1 54768U 22175L   24023.02237184 -.00003989  00000-0 -23290-3 0  9995,2 54768  53.2178 276.1013 0001623  75.5437 284.5736 15.08801701 60711,6917.997,95.44,540.985,538.74,0.0
54768.0,STARLINK-5444,PAYLOAD,2024-01-23 22:47:33,15.08851232,0.0001941,53.2166,271.9424,60.0107,300.1077,0.00011608,1.56e-05,0.0,0 STARLINK-5444,1 54768U 22175L   24023.94969477  .00001560  00000-0  11608-3 0  9994,2 54768  53.2166 271.9424 0001941  60.0107 300.1077 15.08851232 63016,6917.846,95.437,541.054,538.368,0.0
54768.0,STARLINK-5444,PAYLOAD,2024-01-24 03:33:41,15.08866241,0.0001373,53.2153,271.0552,78.4037,281.7109,0.00024229,3.573e-05,0.0,0 STARLINK-5444,1 54768U 22175L   24024.14839895  .00003573  00000-0  24229-3 0  9996,2 54768  53.2153 271.0552 0001373  78.4037 281.7109 15.08866241 60887,6917.8,95.436,540.615,538.715,0.0
54768.0,STARLINK-5444,PAYLOAD,2024-01-24 06:44:28,15.08853232,0.0001531,53.2169,270.4539,73.7167,286.3994,0.00013148,1.806e-05,0.0,0 STARLINK-5444,1 54768U 22175L   24024.28089003  .00001806  00000-0  13148-3 0  9994,2 54768  53.2169 270.4539 0001531  73.7167 286.3994 15.08853232 60902,6917.84,95.437,540.764,538.646,0.0
54768.0,STARLINK-5444,PAYLOAD,2024-01-24 22:38:21,15.08823551,0.0001626,53.2165,267.4857,71.1022,289.0146,0.0003603,5.448e-05,0.0,0 STARLINK-5444,1 54768U 22175L   24024.94330853  .00005448  00000-0  36030-3 0  9990,2 54768  53.2165 267.4857 0001626  71.1022 289.0146 15.08823551 63165,6917.931,95.439,540.921,538.671,0.0
54768.0,STARLINK-5444,PAYLOAD,2024-01-25 19:18:22,15.08851107,0.0001744,53.2164,263.6235,61.4487,298.668,-0.00011352,-2.095e-05,0.0,0 STARLINK-5444,1 54768U 22175L   24025.80442220 -.00002095  00000-0 -11352-3 0  9995,2 54768  53.2164 263.6235 0001744  61.4487 298.6680 15.08851107 61132,6917.846,95.437,540.918,538.505,0.0
54768.0,STARLINK-5444,PAYLOAD,2024-01-25 20:53:45,15.08849444,0.0001393,53.2161,263.3307,77.8955,282.2193,-0.0001164,-2.14e-05,0.0,0 STARLINK-5444,1 54768U 22175L   24025.87066171 -.00002140  00000-0 -11640-3 0  9990,2 54768  53.2161 263.3307 0001393  77.8955 282.2193 15.08849444 63307,6917.852,95.437,540.68,538.753,0.0
54768.0,STARLINK-5444,PAYLOAD,2024-01-26 22:19:54,15.0884982,0.0001406,53.2165,258.5534,102.7924,257.3225,8.7415e-05,1.104e-05,0.0,0 STARLINK-5444,1 54768U 22175L   24026.93049068  .00001104  00000-0  87415-4 0  9995,2 54768  53.2165 258.5534 0001406 102.7924 257.3225 15.08849820 61303,6917.85,95.437,540.688,538.743,0.0
54768.0,STARLINK-5444,PAYLOAD,2024-01-27 14:13:47,15.08829467,0.0001396,53.216,255.5855,75.6739,284.4408,1.5731e-05,-3.8e-07,0.0,0 STARLINK-5444,1 54768U 22175L   24027.59291169 -.00000038  00000-0  15731-4 0  9997,2 54768  53.2160 255.5855 0001396  75.6739 284.4408 15.08829467 63560,6917.913,95.438,540.743,538.812,0.0
54768.0,STARLINK-5444,PAYLOAD,2024-01-27 18:59:57,15.08823898,0.0001193,53.2152,254.6861,98.0697,262.043,-2.864e-05,-7.43e-06,0.0,0 STARLINK-5444,1 54768U 22175L   24027.79163731 -.00000743  00000-0 -28640-4 0  9999,2 54768  53.2152 254.6861 0001193  98.0697 262.0430 15.08823898 61438,6917.93,95.439,540.62,538.969,0.0
54768.0,STARLINK-5444,PAYLOAD,2024-01-27 22:10:44,15.08819162,0.0001034,53.2158,254.0925,82.5577,277.5533,-7.2356e-05,-1.438e-05,0.0,0 STARLINK-5444,1 54768U 22175L   24027.92412251 -.00001438  00000-0 -72356-4 0  9993,2 54768  53.2158 254.0925 0001034  82.5577 277.5533 15.08819162 63614,6917.944,95.439,540.524,539.094,0.0
54768.0,STARLINK-5444,PAYLOAD,2024-01-28 18:50:44,15.08839146,0.0001133,53.216,250.2266,108.5715,251.5401,1.184e-05,-9.9e-07,0.0,0 STARLINK-5444,1 54768U 22175L   24028.78523262 -.00000099  00000-0  11840-4 0  9995,2 54768  53.2160 250.2266 0001133 108.5715 251.5401 15.08839146 61580,6917.883,95.438,540.532,538.964,0.0
54768.0,STARLINK-5444,PAYLOAD,2024-01-28 22:01:30,15.08845037,0.0001193,53.2163,249.635,99.9845,260.1282,6.4544e-05,7.4e-06,0.0,0 STARLINK-5444,1 54768U 22175L   24028.91770886  .00000740  00000-0  64544-4 0  9997,2 54768  53.2163 249.6350 0001193  99.9845 260.1282 15.08845037 63763,6917.865,95.437,540.555,538.905,0.0
54768.0,STARLINK-5444,PAYLOAD,2024-01-29 01:12:16,15.08843328,0.000118,53.2156,249.0391,106.9487,253.1634,0.00017396,2.482e-05,0.0,0 STARLINK-5444,1 54768U 22175L   24029.05019137  .00002482  00000-0  17396-3 0  9995,2 54768  53.2156 249.0391 0001180 106.9487 253.1634 15.08843328 63787,6917.87,95.437,540.552,538.919,0.0
54768.0,STARLINK-5444,PAYLOAD,2024-01-29 23:27:39,15.08857137,9.05e-05,53.215,244.8781,90.6611,269.4485,0.00061507,9.519e-05,0.0,0 STARLINK-5444,1 54768U 22175L   24029.97754409  .00009519  00000-0  61507-3 0  9995,2 54768  53.2150 244.8781 0000905  90.6611 269.4485 15.08857137 61762,6917.828,95.436,540.319,539.067,0.0
